TOMORROW-S1             
1 60479U 24149M   26068.72470524  .00008620  00000+0  28856-3 0  9996
2 60479  97.3791 149.6044 0001819 207.2040 152.9106 15.31198362 86867
STARLINK-34636          
1 64915U 25157M   26068.23485151  .00036183  00000+0  12265-2 0  9994
2 64915  53.1617 347.8170 0001852 143.2793 216.8335 15.30235884 36056
